QIANFAN-49              
1 62250U 24232P   26009.61440198  .00000033  00000+0  32541-4 0  9992
2 62250  89.0003  38.4215 0016057 112.2809 248.0046 13.50983196 71605
QIANFAN-50              
1 62251U 24232Q   26009.63912320  .00000029  00000+0  26613-4 0  9994
2 62251  89.0009  38.4287 0017695 113.6390 246.6621 13.50980022 71631
QIANFAN-51              
1 62252U 24232R   26009.62264535  .00000036  00000+0  36960-4 0  9996
2 62252  89.0003  38.4225 0015148 116.5629 243.7077 13.50982655 71622
QIANFAN-52              
1 62253U 24232S   26009.65149309  .00000035  00000+0  35867-4 0  9995
2 62253  88.9999  38.2921 0017237 109.9150 250.3860 13.50980708 71713
QIANFAN-53              
1 62254U 24232T   26009.55678966  .00000034  00000+0  33480-4 0  9999
2 62254  89.0006  38.4082 0016105 111.0113 249.2763 13.50983267 71667
QIANFAN-54              
1 62255U 24232U   26009.59791808  .00000030  00000+0  27131-4 0  9997
2 62255  88.9998  38.0800 0003519 125.8822 234.2656 13.50983647103174
QIANFAN-55              
1 62785U 25016A   26009.62388872  .00000181  00000+0  26132-3 0  9999
2 62785  88.9775 100.3344 0015602 265.3208  94.6161 13.50985586 50955
QIANFAN-56              
1 62786U 25016B   26009.64035624  .00000174  00000+0  25075-3 0  9993
2 62786  88.9749 100.1616 0014224 267.6737  92.2786 13.50988077 51000
